[{"OBJECT_NAME":"GAOFEN-9 05","OBJECT_ID":"2020-058A","EPOCH":"2026-03-10T00:01:50.876256","MEAN_MOTION":15.30293976,"ECCENTRICITY":0.0010522,"INCLINATION":97.2228,"RA_OF_ASC_NODE":111.963,"ARG_OF_PERICENTER":91.0204,"MEAN_ANOMALY":269.2242,"EPHEMERIS_TYPE":0,"CLASSIFICATION_TYPE":"U","NORAD_CAT_ID":46232,"ELEMENT_SET_NO":999,"REV_AT_EPOCH":30843,"BSTAR":0.00025120304,"MEAN_MOTION_DOT":7.299e-5,"MEAN_MOTION_DDOT":0},{"OBJECT_NAME":"STARLINK-35441","OBJECT_ID":"2025-223R","EPOCH":"2026-03-09T21:27:37.342080","MEAN_MOTION":15.30195204,"ECCENTRICITY":0.00012387,"INCLINATION":53.159,"RA_OF_ASC_NODE":293.4604,"ARG_OF_PERICENTER":71.0703,"MEAN_ANOMALY":289.0432,"EPHEMERIS_TYPE":0,"CLASSIFICATION_TYPE":"U","NORAD_CAT_ID":65869,"ELEMENT_SET_NO":999,"REV_AT_EPOCH":2423,"BSTAR":0.00077016075,"MEAN_MOTION_DOT":0.00022517,"MEAN_MOTION_DDOT":0}]
